CCSDS_OMM_VERS = 2.0
CREATION_DATE  = 
ORIGINATOR     = 

OBJECT_NAME    = SL-16 R/B
OBJECT_ID      = 1993-016B
CENTER_NAME    = EARTH
REF_FRAME      = TEME
TIME_SYSTEM    = UTC
MEAN_ELEMENT_THEORY = SGP/SGP4

EPOCH          = 2025-12-09T10:53:41.848512
MEAN_MOTION    = 14.15287344
ECCENTRICITY   = .00078402
INCLINATION    = 71.0087
RA_OF_ASC_NODE = 44.7051
ARG_OF_PERICENTER = 103.9219
MEAN_ANOMALY   = 256.2776

EPHEMERIS_TYPE = 0
CLASSIFICATION_TYPE = U
NORAD_CAT_ID   = 22566
ELEMENT_SET_NO = 999
REV_AT_EPOCH   = 68940
BSTAR          = -.50616606E-4
MEAN_MOTION_DOT = -.146E-5
MEAN_MOTION_DDOT = 0

CCSDS_OMM_VERS = 2.0
CREATION_DATE  = 
ORIGINATOR     = 

OBJECT_NAME    = COSMOS 2242
OBJECT_ID      = 1993-024A
CENTER_NAME    = EARTH
REF_FRAME      = TEME
TIME_SYSTEM    = UTC
MEAN_ELEMENT_THEORY = SGP/SGP4

EPOCH          = 2025-12-09T11:48:53.050752
MEAN_MOTION    = 14.96085598
ECCENTRICITY   = .00148243
INCLINATION    = 82.5188
RA_OF_ASC_NODE = 352.9486
ARG_OF_PERICENTER = 246.2238
MEAN_ANOMALY   = 113.7430

EPHEMERIS_TYPE = 0
CLASSIFICATION_TYPE = U
NORAD_CAT_ID   = 22626
ELEMENT_SET_NO = 999
REV_AT_EPOCH   = 76690
BSTAR          = .30008834E-3
MEAN_MOTION_DOT = .3404E-4
MEAN_MOTION_DDOT = 0

CCSDS_OMM_VERS = 2.0
CREATION_DATE  = 
ORIGINATOR     = 

OBJECT_NAME    = SL-16 R/B
OBJECT_ID      = 1993-059B
CENTER_NAME    = EARTH
REF_FRAME      = TEME
TIME_SYSTEM    = UTC
MEAN_ELEMENT_THEORY = SGP/SGP4

EPOCH          = 2025-12-09T13:20:32.816832
MEAN_MOTION    = 14.17213552
ECCENTRICITY   = .00178079
INCLINATION    = 70.9896
RA_OF_ASC_NODE = 201.2000
ARG_OF_PERICENTER = 340.1398
MEAN_ANOMALY   = 19.9030

EPHEMERIS_TYPE = 0
CLASSIFICATION_TYPE = U
NORAD_CAT_ID   = 22803
ELEMENT_SET_NO = 999
REV_AT_EPOCH   = 66676
BSTAR          = .5423514E-4
MEAN_MOTION_DOT = .62E-6
MEAN_MOTION_DDOT = 0

CCSDS_OMM_VERS = 2.0
CREATION_DATE  = 
ORIGINATOR     = 

OBJECT_NAME    = ARIANE 40 R/B
OBJECT_ID      = 1993-061H
CENTER_NAME    = EARTH
REF_FRAME      = TEME
TIME_SYSTEM    = UTC
MEAN_ELEMENT_THEORY = SGP/SGP4

EPOCH          = 2025-12-09T11:25:05.315808
MEAN_MOTION    = 14.32798567
ECCENTRICITY   = .00106866
INCLINATION    = 98.5080
RA_OF_ASC_NODE = 49.0651
ARG_OF_PERICENTER = 185.5698
MEAN_ANOMALY   = 174.5369

EPHEMERIS_TYPE = 0
CLASSIFICATION_TYPE = U
NORAD_CAT_ID   = 22830
ELEMENT_SET_NO = 999
REV_AT_EPOCH   = 68118
BSTAR          = .2119187E-3
MEAN_MOTION_DOT = .535E-5
MEAN_MOTION_DDOT = 0

CCSDS_OMM_VERS = 2.0
CREATION_DATE  = 
ORIGINATOR     = 

OBJECT_NAME    = COSMOS 2278
OBJECT_ID      = 1994-023A
CENTER_NAME    = EARTH
REF_FRAME      = TEME
TIME_SYSTEM    = UTC
MEAN_ELEMENT_THEORY = SGP/SGP4

EPOCH          = 2025-12-09T11:52:23.902176
MEAN_MOTION    = 14.14351144
ECCENTRICITY   = .00084882
INCLINATION    = 71.0545
RA_OF_ASC_NODE = 3.8004
ARG_OF_PERICENTER = 184.9129
MEAN_ANOMALY   = 175.1912

EPHEMERIS_TYPE = 0
CLASSIFICATION_TYPE = U
NORAD_CAT_ID   = 23087
ELEMENT_SET_NO = 999
REV_AT_EPOCH   = 63205
BSTAR          = -.31843477E-4
MEAN_MOTION_DOT = -.108E-5
MEAN_MOTION_DDOT = 0

CCSDS_OMM_VERS = 2.0
CREATION_DATE  = 
ORIGINATOR     = 

OBJECT_NAME    = SL-16 R/B
OBJECT_ID      = 1994-023B
CENTER_NAME    = EARTH
REF_FRAME      = TEME
TIME_SYSTEM    = UTC
MEAN_ELEMENT_THEORY = SGP/SGP4

EPOCH          = 2025-12-09T12:16:47.687520
MEAN_MOTION    = 14.15002139
ECCENTRICITY   = .00012073
INCLINATION    = 71.0010
RA_OF_ASC_NODE = 260.2644
ARG_OF_PERICENTER = 40.0639
MEAN_ANOMALY   = 320.0573

EPHEMERIS_TYPE = 0
CLASSIFICATION_TYPE = U
NORAD_CAT_ID   = 23088
ELEMENT_SET_NO = 999
REV_AT_EPOCH   = 63333
BSTAR          = .12817664E-3
MEAN_MOTION_DOT = .201E-5
MEAN_MOTION_DDOT = 0

CCSDS_OMM_VERS = 2.0
CREATION_DATE  = 
ORIGINATOR     = 

OBJECT_NAME    = SL-16 R/B
OBJECT_ID      = 1994-074B
CENTER_NAME    = EARTH
REF_FRAME      = TEME
TIME_SYSTEM    = UTC
MEAN_ELEMENT_THEORY = SGP/SGP4

EPOCH          = 2025-12-09T08:25:32.335680
MEAN_MOTION    = 14.79284166
ECCENTRICITY   = .00073069
INCLINATION    = 97.7204
RA_OF_ASC_NODE = 12.7902
ARG_OF_PERICENTER = 145.5563
MEAN_ANOMALY   = 225.8118

EPHEMERIS_TYPE = 0
CLASSIFICATION_TYPE = U
NORAD_CAT_ID   = 23343
ELEMENT_SET_NO = 999
REV_AT_EPOCH   = 67389
BSTAR          = .13106605E-3
MEAN_MOTION_DOT = .926E-5
MEAN_MOTION_DDOT = 0

CCSDS_OMM_VERS = 2.0
CREATION_DATE  = 
ORIGINATOR     = 

OBJECT_NAME    = SL-16 R/B
OBJECT_ID      = 1994-077B
CENTER_NAME    = EARTH
REF_FRAME      = TEME
TIME_SYSTEM    = UTC
MEAN_ELEMENT_THEORY = SGP/SGP4

EPOCH          = 2025-12-09T07:35:40.226784
MEAN_MOTION    = 14.15547587
ECCENTRICITY   = .00045971
INCLINATION    = 70.9812
RA_OF_ASC_NODE = 182.6156
ARG_OF_PERICENTER = 286.6616
MEAN_ANOMALY   = 73.4002

EPHEMERIS_TYPE = 0
CLASSIFICATION_TYPE = U
NORAD_CAT_ID   = 23405
ELEMENT_SET_NO = 999
REV_AT_EPOCH   = 60344
BSTAR          = .15727283E-3
MEAN_MOTION_DOT = .26E-5
MEAN_MOTION_DDOT = 0

CCSDS_OMM_VERS = 2.0
CREATION_DATE  = 
ORIGINATOR     = 

OBJECT_NAME    = ARIANE 40+ R/B
OBJECT_ID      = 1995-021B
CENTER_NAME    = EARTH
REF_FRAME      = TEME
TIME_SYSTEM    = UTC
MEAN_ELEMENT_THEORY = SGP/SGP4

EPOCH          = 2025-12-09T04:35:49.156224
MEAN_MOTION    = 14.39691045
ECCENTRICITY   = .00076108
INCLINATION    = 98.4654
RA_OF_ASC_NODE = 50.8231
ARG_OF_PERICENTER = 59.2908
MEAN_ANOMALY   = 358.8760

EPHEMERIS_TYPE = 0
CLASSIFICATION_TYPE = U
NORAD_CAT_ID   = 23561
ELEMENT_SET_NO = 999
REV_AT_EPOCH   = 60622
BSTAR          = .17569103E-3
MEAN_MOTION_DOT = .506E-5
MEAN_MOTION_DDOT = 0

CCSDS_OMM_VERS = 2.0
CREATION_DATE  = 
ORIGINATOR     = 

OBJECT_NAME    = SL-16 R/B
OBJECT_ID      = 1995-058B
CENTER_NAME    = EARTH
REF_FRAME      = TEME
TIME_SYSTEM    = UTC
MEAN_ELEMENT_THEORY = SGP/SGP4

EPOCH          = 2025-12-09T11:02:49.579584
MEAN_MOTION    = 14.15482917
ECCENTRICITY   = .00149392
INCLINATION    = 71.0225
RA_OF_ASC_NODE = 9.6896
ARG_OF_PERICENTER = 259.3406
MEAN_ANOMALY   = 100.6035

EPHEMERIS_TYPE = 0
CLASSIFICATION_TYPE = U
NORAD_CAT_ID   = 23705
ELEMENT_SET_NO = 999
REV_AT_EPOCH   = 55508
BSTAR          = .13887765E-3
MEAN_MOTION_DOT = .224E-5
MEAN_MOTION_DDOT = 0

CCSDS_OMM_VERS = 2.0
CREATION_DATE  = 
ORIGINATOR     = 

OBJECT_NAME    = SL-16 R/B
OBJECT_ID      = 1996-051B
CENTER_NAME    = EARTH
REF_FRAME      = TEME
TIME_SYSTEM    = UTC
MEAN_ELEMENT_THEORY = SGP/SGP4

EPOCH          = 2025-12-09T12:20:17.299968
MEAN_MOTION    = 14.12396196
ECCENTRICITY   = .00193416
INCLINATION    = 70.7595
RA_OF_ASC_NODE = 6.1120
ARG_OF_PERICENTER = 265.2914
MEAN_ANOMALY   = 94.5997

EPHEMERIS_TYPE = 0
CLASSIFICATION_TYPE = U
NORAD_CAT_ID   = 24298
ELEMENT_SET_NO = 999
REV_AT_EPOCH   = 50891
BSTAR          = .49514073E-4
MEAN_MOTION_DOT = .42E-6
MEAN_MOTION_DDOT = 0

CCSDS_OMM_VERS = 2.0
CREATION_DATE  = 
ORIGINATOR     = 

OBJECT_NAME    = ORBVIEW 2 (SEASTAR)
OBJECT_ID      = 1997-037A
CENTER_NAME    = EARTH
REF_FRAME      = TEME
TIME_SYSTEM    = UTC
MEAN_ELEMENT_THEORY = SGP/SGP4

EPOCH          = 2025-12-09T10:19:12.791424
MEAN_MOTION    = 14.35413712
ECCENTRICITY   = .00018147
INCLINATION    = 98.8455
RA_OF_ASC_NODE = 140.4212
ARG_OF_PERICENTER = 352.6588
MEAN_ANOMALY   = 7.4569

EPHEMERIS_TYPE = 0
CLASSIFICATION_TYPE = U
NORAD_CAT_ID   = 24883
ELEMENT_SET_NO = 999
REV_AT_EPOCH   = 49552
BSTAR          = .2346196E-3
MEAN_MOTION_DOT = .627E-5
MEAN_MOTION_DDOT = 0

